GPS BIIR-2  (PRN 13)    
1 24876U 97035A   23354.79057780  .00000065  00000+0  00000+0 0  9990
2 24876  55.6185 134.1455 0075577  53.5843 307.0874  2.00564815193712
GPS BIIR-4  (PRN 20)    
1 26360U 00025A   23353.27440814 -.00000068  00000+0  00000+0 0  9993
2 26360  54.5193  56.2673 0041452 207.2756 228.6976  2.00563095173001
GPS BIIR-5  (PRN 22)    
1 26407U 00040A   23355.14058819 -.00000009  00000+0  00000+0 0  9995
2 26407  55.1471 251.3119 0150364 293.4959 251.0936  2.00557478171717
GPS BIIR-8  (PRN 16)    
1 27663U 03005A   23355.47869500 -.00000006  00000+0  00000+0 0  9994
2 27663  55.1877 251.1093 0136617  45.7575 159.9606  2.00559757153080
GPS BIIR-9  (PRN 21)    
1 27704U 03010A   23355.40898324 -.00000081  00000+0  00000+0 0  9998
2 27704  55.1156   1.0064 0252506 321.5408  51.5102  2.00555919151882
GPS BIIR-11 (PRN 19)    
1 28190U 04009A   23355.23007594 -.00000078  00000+0  00000+0 0  9995
2 28190  55.6057 312.1764 0092178 142.1527  41.1234  2.00563805144714
GPS BIIR-13 (PRN 02)    
1 28474U 04045A   23354.58248192 -.00000077  00000+0  00000+0 0  9997
2 28474  55.4433   1.3977 0164772 286.2366 200.0043  2.00537007140185
GPS BIIRM-1 (PRN 17)    
1 28874U 05038A   23354.10565288 -.00000067  00000+0  00000+0 0  9999
2 28874  55.6557 309.6763 0139909 281.9167 193.3815  2.00568004133588
GPS BIIRM-2 (PRN 31)    
1 29486U 06042A   23354.33768168  .00000107  00000+0  00000+0 0  9996
2 29486  54.6802 187.4134 0104894  35.7003 147.5484  2.00564624126144
GPS BIIRM-3 (PRN 12)    
1 29601U 06052A   23354.01185064 -.00000009  00000+0  00000+0 0  9991
2 29601  55.2128 250.1340 0086130  79.9080 281.1223  2.00555508125152
GPS BIIRM-4 (PRN 15)    
1 32260U 07047A   23354.81954051  .00000024  00000+0  00000+0 0  9995
2 32260  53.5171 117.6852 0152464  73.1824 288.4589  2.00573489118578
GPS BIIRM-5 (PRN 29)    
1 32384U 07062A   23354.35320392 -.00000069  00000+0  00000+0 0  9993
2 32384  55.7902 310.5035 0023865 150.7694   1.9218  2.00564031117262
GPS BIIRM-6 (PRN 07)    
1 32711U 08012A   23354.23653600  .00000107  00000+0  00000+0 0  9993
2 32711  54.4496 186.2235 0178955 236.5080 121.8139  2.00561249115500
GPS BIIRM-8 (PRN 05)    
1 35752U 09043A   23355.21710955 -.00000076  00000+0  00000+0 0  9998
2 35752  55.5232  63.4114 0055873  70.2252 292.3388  2.00551716105133
GPS BIIF-1  (PRN 25)    
1 36585U 10022A   23354.30195278  .00000001  00000+0  00000+0 0  9993
2 36585  54.5155 245.2678 0114298  60.2940 122.2601  2.00567388 99342
GPS BIIF-3  (PRN 24)    
1 38833U 12053A   23354.40879406  .00000109  00000+0  00000+0 0  9999
2 38833  53.5126 180.8153 0148098  54.1194 307.2848  2.00568827 82087
GPS BIIF-4  (PRN 27)    
1 39166U 13023A   23355.27113188 -.00000077  00000+0  00000+0 0  9996
2 39166  55.2682 305.7833 0118882  41.8011 319.0951  2.00563991 77655
GPS BIIF-5  (PRN 30)    
1 39533U 14008A   23354.27661332  .00000105  00000+0  00000+0 0  9997
2 39533  53.5977 186.3937 0067597 215.2924 144.3036  2.00557695 71432
GPS BIIF-6  (PRN 06)    
1 39741U 14026A   23355.05927711 -.00000076  00000+0  00000+0 0  9999
2 39741  56.7073   6.8111 0032983 310.6499  49.1021  2.00549570 70307
GPS BIIF-7  (PRN 09)    
1 40105U 14045A   23354.14452594  .00000050  00000+0  00000+0 0  9998
2 40105  54.8566 124.8040 0027317 116.6026 243.6554  2.00553654 67829
GPS BIIF-8  (PRN 03)    
1 40294U 14068A   23355.50812336 -.00000076  00000+0  00000+0 0  9996
2 40294  56.2684  66.2229 0048521  62.1821 298.3415  2.00578775 66981
GPS BIIF-9  (PRN 26)    
1 40534U 15013A   23355.15627714  .00000011  00000+0  00000+0 0  9997
2 40534  53.4133 241.8219 0085438  27.5934 332.9258  2.00576667 63596
GPS BIIF-10 (PRN 08)    
1 40730U 15033A   23355.31723190 -.00000077  00000+0  00000+0 0  9993
2 40730  54.7544 304.3432 0089930  15.0549 345.2055  2.00576364 61764
GPS BIIF-11 (PRN 10)    
1 41019U 15062A   23352.87390767 -.00000052  00000+0  00000+0 0  9997
2 41019  56.2489  66.1780 0093673 223.1170 136.1847  2.00562033 59558
GPS BIIF-12 (PRN 32)    
1 41328U 16007A   23354.45504120  .00000049  00000+0  00000+0 0  9991
2 41328  55.0578 125.5941 0074663 234.3444 124.9366  2.00570426 57590
GPS BIII-1  (PRN 04)    
1 43873U 18109A   23354.58449686  .00000053  00000+0  00000+0 0  9997
2 43873  55.2318 128.1267 0028017 190.9978 156.6972  2.00571946 36828
GPS BIII-2  (PRN 18)    
1 44506U 19056A   23353.50248310 -.00000074  00000+0  00000+0 0  9999
2 44506  55.8343   7.2350 0038765 190.1418 353.8123  2.00567645 31801
GPS BIII-3  (PRN 23)    
1 45854U 20041A   23355.32132875 -.00000076  00000+0  00000+0 0  9994
2 45854  55.9727  64.4647 0039653 191.0354 168.0109  2.00560647 25803
GPS BIII-4  (PRN 14)    
1 46826U 20078A   23354.60307303 -.00000004  00000+0  00000+0 0  9995
2 46826  54.2575 247.7074 0038178 193.7488 343.0881  2.00562228 23261
GPS BIII-5  (PRN 11)    
1 48859U 21054A   23354.74682022 -.00000079  00000+0  00000+0 0  9999
2 48859  55.3545   8.9205 0014388 223.1096 242.1908  2.00567545 18519
GPS BIII-6  (PRN 28)    
1 55268U 23009A   23353.80213624  .00000106  00000+0  00000+0 0  9997
2 55268  55.0874 184.2393 0005339 100.5717  79.3860  2.00577215  6983
